[
    {
        "Altitude(m)": 622200.1170206125,
        "Argument of Periapsis(deg)": 0.0,
        "Eccentricity": 0.0,
        "Inclination(deg)": 60.0,
        "Latitude(deg)": -52.16256532983152,
        "Longitude(deg)": -167.6393756802503,
        "Mean Anomaly(deg)": -65.45450000000002,
        "RAAN(deg)": 340.00000000000006,
        "Satellite Name": "Test1 1514",
        "Satellite Number": 1514,
        "Semi-Major Axis(m)": 6980739.136638005,
        "Time(s)": 0
    },
    {
        "Altitude(m)": 622058.285287534,
        "Argument of Periapsis(deg)": 0.00010418945913296404,
        "Eccentricity": 0.0,
        "Inclination(deg)": 60.0,
        "Latitude(deg)": -51.799316323850206,
        "Longitude(deg)": -166.8713156613345,
        "Mean Anomaly(deg)": -64.83439385453818,
        "RAAN(deg)": 339.99957995086027,
        "Satellite Name": "Test1 1514",
        "Satellite Number": 1514,
        "Semi-Major Axis(m)": 6980739.136638005,
        "Time(s)": 10
    }
]